start=new Date('2022-09-16T00:00:00.000Z').valueOf();
sats=[{"TLE_LINE1":"1 53657U 22105K   22259.00001157 -.01212637  00000-0 -12564-1 0  9993","ARG_OF_PERICENTER":"121.3298","PERIAPSIS":"365.409","SEMIMAJOR_AXIS":"6744.871","REF_FRAME":"TEME","EPOCH":"2022-09-16T00:00:00.999648","APOAPSIS":"368.063","INCLINATION":"97.6555","OBJECT_TYPE":"PAYLOAD","DECAY_DATE":null,"GP_ID":"212656332","TLE_LINE2":"2 53657  97.6555 137.3965 0001968 121.3298  53.9296 15.67264454  2762","MEAN_ELEMENT_THEORY":"SGP4","RCS_SIZE":"LARGE","MEAN_MOTION_DOT":"-0.01212637","CLASSIFICATION_TYPE":"U","RA_OF_ASC_NODE":"137.3965","MEAN_ANOMALY":"53.9296","ELEMENT_SET_NO":"999","NORAD_CAT_ID":"53657","FILE":"3574937","CENTER_NAME":"EARTH","LAUNCH_DATE":"2022-08-31","MEAN_MOTION":"15.67264454","SITE":"AFWTR","OBJECT_NAME":"STARLINK-4469","OBJECT_ID":"2022-105K","MEAN_MOTION_DDOT":"0.0000000000000","REV_AT_EPOCH":"276","PERIOD":"91.880","ECCENTRICITY":"0.00019680","BSTAR":"-0.01256400000000","TIME_SYSTEM":"UTC","EPHEMERIS_TYPE":"0","COUNTRY_CODE":"US"},{"SEMIMAJOR_AXIS":"6744.840","REF_FRAME":"TEME","EPOCH":"2022-09-16T00:00:00.999648","APOAPSIS":"368.020","TLE_LINE1":"1 53658U 22105L   22259.00001157 -.01228428  00000-0 -12740-1 0  9995","ARG_OF_PERICENTER":"128.3864","PERIAPSIS":"365.389","MEAN_ELEMENT_THEORY":"SGP4","CLASSIFICATION_TYPE":"U","RCS_SIZE":"LARGE","MEAN_MOTION_DOT":"-0.01228428","RA_OF_ASC_NODE":"137.3978","MEAN_ANOMALY":"49.2460","INCLINATION":"97.6555","OBJECT_TYPE":"PAYLOAD","DECAY_DATE":null,"GP_ID":"212656578","TLE_LINE2":"2 53658  97.6555 137.3978 0001950 128.3864  49.2460 15.67275373  2767","OBJECT_NAME":"STARLINK-4452","OBJECT_ID":"2022-105L","ELEMENT_SET_NO":"999","NORAD_CAT_ID":"53658","FILE":"3574937","LAUNCH_DATE":"2022-08-31","CENTER_NAME":"EARTH","MEAN_MOTION":"15.67275373","SITE":"AFWTR","TIME_SYSTEM":"UTC","EPHEMERIS_TYPE":"0","COUNTRY_CODE":"US","MEAN_MOTION_DDOT":"0.0000000000000","PERIOD":"91.879","REV_AT_EPOCH":"276","ECCENTRICITY":"0.00019500","BSTAR":"-0.01274000000000"},{"APOAPSIS":"368.028","EPOCH":"2022-09-16T00:00:00.999648","REF_FRAME":"TEME","SEMIMAJOR_AXIS":"6744.833","PERIAPSIS":"365.368","ARG_OF_PERICENTER":"126.6419","TLE_LINE1":"1 53659U 22105M   22259.00001157 -.01231244  00000-0 -12771-1 0  9990","MEAN_ANOMALY":"49.8003","RCS_SIZE":"LARGE","MEAN_MOTION_DOT":"-0.01231244","CLASSIFICATION_TYPE":"U","RA_OF_ASC_NODE":"137.3975","MEAN_ELEMENT_THEORY":"SGP4","TLE_LINE2":"2 53659  97.6554 137.3975 0001972 126.6419  49.8003 15.67277866  2763","GP_ID":"212656583","DECAY_DATE":null,"INCLINATION":"97.6554","OBJECT_TYPE":"PAYLOAD","OBJECT_ID":"2022-105M","OBJECT_NAME":"STARLINK-4463","LAUNCH_DATE":"2022-08-31","MEAN_MOTION":"15.67277866","CENTER_NAME":"EARTH","SITE":"AFWTR","NORAD_CAT_ID":"53659","FILE":"3574937","ELEMENT_SET_NO":"999","COUNTRY_CODE":"US","EPHEMERIS_TYPE":"0","TIME_SYSTEM":"UTC","BSTAR":"-0.01277100000000","ECCENTRICITY":"0.00019720","MEAN_MOTION_DDOT":"0.0000000000000","PERIOD":"91.879","REV_AT_EPOCH":"276"},{"REF_FRAME":"TEME","SEMIMAJOR_AXIS":"6744.885","APOAPSIS":"368.135","EPOCH":"2022-09-16T00:00:00.999648","ARG_OF_PERICENTER":"128.2825","TLE_LINE1":"1 53660U 22105N   22259.00001157 -.01208719  00000-0 -12521-1 0  9996","PERIAPSIS":"365.364","MEAN_ELEMENT_THEORY":"SGP4","MEAN_ANOMALY":"51.1415","CLASSIFICATION_TYPE":"U","RCS_SIZE":"LARGE","MEAN_MOTION_DOT":"-0.01208719","RA_OF_ASC_NODE":"137.3985","DECAY_DATE":null,"INCLINATION":"97.6556","OBJECT_TYPE":"PAYLOAD","TLE_LINE2":"2 53660  97.6556 137.3985 0002054 128.2825  51.1415 15.67259728  2769","GP_ID":"212656595","OBJECT_NAME":"STARLINK-4473","OBJECT_ID":"2022-105N","NORAD_CAT_ID":"53660","FILE":"3574938","ELEMENT_SET_NO":"999","LAUNCH_DATE":"2022-08-31","MEAN_MOTION":"15.67259728","CENTER_NAME":"EARTH","SITE":"AFWTR","TIME_SYSTEM":"UTC","COUNTRY_CODE":"US","EPHEMERIS_TYPE":"0","ECCENTRICITY":"0.00020540","MEAN_MOTION_DDOT":"0.0000000000000","REV_AT_EPOCH":"276","PERIOD":"91.880","BSTAR":"-0.01252100000000"},{"TIME_SYSTEM":"UTC","EPHEMERIS_TYPE":"0","COUNTRY_CODE":"US","MEAN_MOTION_DDOT":"0.0000000000000","REV_AT_EPOCH":"276","PERIOD":"91.878","ECCENTRICITY":"0.00019740","BSTAR":"-0.01312300000000","OBJECT_NAME":"STARLINK-4472","OBJECT_ID":"2022-105P","ELEMENT_SET_NO":"999","NORAD_CAT_ID":"53661","FILE":"3574938","MEAN_MOTION":"15.67300697","LAUNCH_DATE":"2022-08-31","CENTER_NAME":"EARTH","SITE":"AFWTR","MEAN_ELEMENT_THEORY":"SGP4","RCS_SIZE":"LARGE","CLASSIFICATION_TYPE":"U","MEAN_MOTION_DOT":"-0.01262782","RA_OF_ASC_NODE":"137.3986","MEAN_ANOMALY":"54.3526","INCLINATION":"97.6556","OBJECT_TYPE":"PAYLOAD","DECAY_DATE":null,"GP_ID":"212656351","TLE_LINE2":"2 53661  97.6556 137.3986 0001974 123.8624  54.3526 15.67300697  2769","SEMIMAJOR_AXIS":"6744.767","REF_FRAME":"TEME","EPOCH":"2022-09-16T00:00:00.999648","APOAPSIS":"367.964","TLE_LINE1":"1 53661U 22105P   22259.00001157 -.01262782  00000-0 -13123-1 0  9996","ARG_OF_PERICENTER":"123.8624","PERIAPSIS":"365.301"},{"OBJECT_TYPE":"PAYLOAD","INCLINATION":"97.6555","DECAY_DATE":null,"GP_ID":"212656609","TLE_LINE2":"2 53662  97.6555 137.3975 0002203 134.2659  46.9404 15.67261873  2761","MEAN_ELEMENT_THEORY":"SGP4","RA_OF_ASC_NODE":"137.3975","RCS_SIZE":"LARGE","CLASSIFICATION_TYPE":"U","MEAN_MOTION_DOT":"-0.01212367","MEAN_ANOMALY":"46.9404","TLE_LINE1":"1 53662U 22105Q   22259.00001157 -.01212367  00000-0 -12561-1 0  9996","ARG_OF_PERICENTER":"134.2659","PERIAPSIS":"365.258","SEMIMAJOR_AXIS":"6744.878","REF_FRAME":"TEME","EPOCH":"2022-09-16T00:00:00.999648","APOAPSIS":"368.229","PERIOD":"91.880","REV_AT_EPOCH":"276","MEAN_MOTION_DDOT":"0.0000000000000","ECCENTRICITY":"0.00022030","BSTAR":"-0.01256100000000","TIME_SYSTEM":"UTC","EPHEMERIS_TYPE":"0","COUNTRY_CODE":"US","ELEMENT_SET_NO":"999","FILE":"3574939","NORAD_CAT_ID":"53662","SITE":"AFWTR","LAUNCH_DATE":"2022-08-31","MEAN_MOTION":"15.67261873","CENTER_NAME":"EARTH","OBJECT_NAME":"STARLINK-4357","OBJECT_ID":"2022-105Q"},{"MEAN_ANOMALY":"55.5997","RA_OF_ASC_NODE":"137.3970","CLASSIFICATION_TYPE":"U","RCS_SIZE":"LARGE","MEAN_MOTION_DOT":"-0.01212765","MEAN_ELEMENT_THEORY":"SGP4","TLE_LINE2":"2 53663  97.6555 137.3970 0001997 123.2277  55.5997 15.67263134  2765","GP_ID":"212656613","DECAY_DATE":null,"OBJECT_TYPE":"PAYLOAD","INCLINATION":"97.6555","APOAPSIS":"368.087","EPOCH":"2022-09-16T00:00:00.999648","REF_FRAME":"TEME","SEMIMAJOR_AXIS":"6744.875","PERIAPSIS":"365.393","ARG_OF_PERICENTER":"123.2277","TLE_LINE1":"1 53663U 22105R   22259.00001157 -.01212765  00000-0 -12566-1 0  9994","COUNTRY_CODE":"US","EPHEMERIS_TYPE":"0","TIME_SYSTEM":"UTC","BSTAR":"-0.01256600000000","ECCENTRICITY":"0.00019970","REV_AT_EPOCH":"276","PERIOD":"91.880","MEAN_MOTION_DDOT":"0.0000000000000","OBJECT_ID":"2022-105R","OBJECT_NAME":"STARLINK-4457","SITE":"AFWTR","MEAN_MOTION":"15.67263134","LAUNCH_DATE":"2022-08-31","CENTER_NAME":"EARTH","FILE":"3574939","NORAD_CAT_ID":"53663","ELEMENT_SET_NO":"999"},{"MEAN_ELEMENT_THEORY":"SGP4","MEAN_ANOMALY":"56.7772","RA_OF_ASC_NODE":"137.3976","MEAN_MOTION_DOT":"-0.01212364","RCS_SIZE":"LARGE","CLASSIFICATION_TYPE":"U","DECAY_DATE":null,"OBJECT_TYPE":"PAYLOAD","INCLINATION":"97.6555","TLE_LINE2":"2 53664  97.6555 137.3976 0002026 125.0238  56.7772 15.67261662  2761","GP_ID":"212656630","REF_FRAME":"TEME","SEMIMAJOR_AXIS":"6744.879","APOAPSIS":"368.111","EPOCH":"2022-09-16T00:00:00.999648","ARG_OF_PERICENTER":"125.0238","TLE_LINE1":"1 53664U 22105S   22259.00001157 -.01212364  00000-0 -12562-1 0  9996","PERIAPSIS":"365.378","TIME_SYSTEM":"UTC","COUNTRY_CODE":"US","EPHEMERIS_TYPE":"0","ECCENTRICITY":"0.00020260","PERIOD":"91.880","REV_AT_EPOCH":"276","MEAN_MOTION_DDOT":"0.0000000000000","BSTAR":"-0.01256200000000","OBJECT_NAME":"STARLINK-4471","OBJECT_ID":"2022-105S","FILE":"3574941","NORAD_CAT_ID":"53664","ELEMENT_SET_NO":"999","SITE":"AFWTR","LAUNCH_DATE":"2022-08-31","MEAN_MOTION":"15.67261662","CENTER_NAME":"EARTH"},{"MEAN_MOTION_DOT":"-0.01214164","RCS_SIZE":"LARGE","CLASSIFICATION_TYPE":"U","RA_OF_ASC_NODE":"137.3975","MEAN_ANOMALY":"58.0179","MEAN_ELEMENT_THEORY":"SGP4","GP_ID":"212656641","TLE_LINE2":"2 53665  97.6554 137.3975 0001919 121.9980  58.0179 15.67264029  2765","INCLINATION":"97.6554","OBJECT_TYPE":"PAYLOAD","DECAY_DATE":null,"EPOCH":"2022-09-16T00:00:00.999648","APOAPSIS":"368.032","SEMIMAJOR_AXIS":"6744.872","REF_FRAME":"TEME","PERIAPSIS":"365.443","TLE_LINE1":"1 53665U 22105T   22259.00001157 -.01214164  00000-0 -12582-1 0  9999","ARG_OF_PERICENTER":"121.9980","EPHEMERIS_TYPE":"0","COUNTRY_CODE":"US","TIME_SYSTEM":"UTC","BSTAR":"-0.01258200000000","MEAN_MOTION_DDOT":"0.0000000000000","PERIOD":"91.880","REV_AT_EPOCH":"276","ECCENTRICITY":"0.00019190","OBJECT_ID":"2022-105T","OBJECT_NAME":"STARLINK-4334","MEAN_MOTION":"15.67264029","LAUNCH_DATE":"2022-08-31","CENTER_NAME":"EARTH","SITE":"AFWTR","ELEMENT_SET_NO":"999","NORAD_CAT_ID":"53665","FILE":"3574941"},{"TIME_SYSTEM":"UTC","COUNTRY_CODE":"US","EPHEMERIS_TYPE":"0","ECCENTRICITY":"0.00021140","PERIOD":"91.880","REV_AT_EPOCH":"276","MEAN_MOTION_DDOT":"0.0000000000000","BSTAR":"-0.01257000000000","OBJECT_NAME":"STARLINK-4449","OBJECT_ID":"2022-105U","FILE":"3574943","NORAD_CAT_ID":"53666","ELEMENT_SET_NO":"999","SITE":"AFWTR","LAUNCH_DATE":"2022-08-31","CENTER_NAME":"EARTH","MEAN_MOTION":"15.67261751","MEAN_ELEMENT_THEORY":"SGP4","MEAN_ANOMALY":"52.6494","RA_OF_ASC_NODE":"137.3977","RCS_SIZE":"LARGE","MEAN_MOTION_DOT":"-0.01213105","CLASSIFICATION_TYPE":"U","DECAY_DATE":null,"OBJECT_TYPE":"PAYLOAD","INCLINATION":"97.6555","TLE_LINE2":"2 53666  97.6555 137.3977 0002114 130.3407  52.6494 15.67261751  2764","GP_ID":"212656404","REF_FRAME":"TEME","SEMIMAJOR_AXIS":"6744.879","APOAPSIS":"368.170","EPOCH":"2022-09-16T00:00:00.999648","ARG_OF_PERICENTER":"130.3407","TLE_LINE1":"1 53666U 22105U   22259.00001157 -.01213105  00000-0 -12570-1 0  9991","PERIAPSIS":"365.318"}];
